{
  "norad_id": 67370,
  "name": "LEMUR-2-GRAM-E-SUE",
  "history": [
    {
      "epoch": "2026-03-28T21:22:48.601920Z",
      "apogee_km": 610.1742429553133,
      "perigee_km": 598.0670082325332,
      "latitude_deg": -7.600273598691396e-05,
      "longitude_deg": -59.27398583744288,
      "height_km": 603.9208408557819,
      "semi_major_axis_km": 6982.257625593923,
      "eccentricity": 0.000867,
      "inclination_deg": 97.7981,
      "raan_deg": 87.7333,
      "arg_perigee_deg": 57.866,
      "mean_anomaly_deg": 302.3396,
      "mean_motion_rev_day": 14.88020651
    },
    {
      "epoch": "2026-03-28T21:22:48.602784Z",
      "apogee_km": 610.1741033101616,
      "perigee_km": 598.0671478776858,
      "latitude_deg": -7.408572192847706e-05,
      "longitude_deg": -59.27398970841044,
      "height_km": 603.9209151524315,
      "semi_major_axis_km": 6982.257625593923,
      "eccentricity": 0.00086698,
      "inclination_deg": 97.7981,
      "raan_deg": 87.7333,
      "arg_perigee_deg": 57.866,
      "mean_anomaly_deg": 302.3396,
      "mean_motion_rev_day": 14.88020651
    }
  ]
}